STARLINK-2092           
1 47373U 21005AA  23116.07963939 -.00015493  00000+0 -10245-2 0  9998
2 47373  53.0536  89.0136 0001514 100.5204 259.5955 15.06361407124996
STARLINK-2093           
1 47374U 21005AB  23115.30461799  .00014696  00000+0  10017-2 0  9990
2 47374  53.0539  92.4883 0001143  68.5339 291.5772 15.06465001124872
STARLINK-2094           
1 47375U 21005AC  23115.44195543 -.00022291  00000+0 -14823-2 0  9998
2 47375  53.0547  91.8760 0001368  83.7677 276.3468 15.06399381124894
STARLINK-2096           
1 47376U 21005AD  23116.10912589  .00008807  00000+0  61022-3 0  9999
2 47376  53.0537  88.8756 0001398  87.9954 272.1195 15.06351040124994
STARLINK-2097           
1 47377U 21005AE  23116.09437873 -.00012870  00000+0 -84738-3 0  9992
2 47377  53.0560  88.9448 0002554 125.9147 234.2079 15.06366808124990
STARLINK-2098           
1 47378U 21005AF  23115.22445807  .00031229  00000+0  21006-2 0  9998
2 47378  53.0548  52.8489 0001330 101.4933 258.6205 15.06497957125425
STARLINK-2099           
1 47379U 21005AG  23116.09437357  .00020249  00000+0  13767-2 0  9991
2 47379  53.0552  48.9444 0001162 114.9629 245.1481 15.06337595125554
STARLINK-2100           
1 47380U 21005AH  23116.12297077  .00018943  00000+0  12905-2 0  9991
2 47380  53.0545  58.8149 0001005  95.8781 264.2322 15.06304682126369
STARLINK-2101           
1 47381U 21005AJ  23116.07271790  .00013102  00000+0  89724-3 0  9996
2 47381  53.0566  64.1297 0001260  97.6789 262.4343 15.06382673126301
STARLINK-2102           
1 47382U 21005AK  23116.11555808  .00021205  00000+0  14394-2 0  9990
2 47382  53.0551  58.8463 0000995  97.8237 262.2865 15.06367969126358
STARLINK-2103           
1 47383U 21005AL  23116.06763519  .00021413  00000+0  14544-2 0  9993
2 47383  53.0553  49.0669 0001455 105.3039 254.8111 15.06340096125552
STARLINK-2104           
1 47384U 21005AM  23116.10083691  .00020636  00000+0  14006-2 0  9994
2 47384  53.0558  59.1575 0001734 123.6791 236.4364 15.06389330126027
STARLINK-2105           
1 47385U 21005AN  23115.23460223  .00024585  00000+0  16599-2 0  9994
2 47385  53.0549  62.8062 0001645  93.1013 267.0164 15.06483798125287
STARLINK-2106           
1 47386U 21005AP  23115.26407833  .00021464  00000+0  14513-2 0  9993
2 47386  53.0550  62.6691 0001413  71.2477 288.8665 15.06507127125291
STARLINK-2108           
1 47387U 21005AQ  23115.44932637 -.00023365  00000+0 -15551-2 0  9996
2 47387  53.0529  91.8386 0001226  86.5104 273.6025 15.06393563124895
STARLINK-2109           
1 47388U 21005AR  23115.33138015  .00019062  00000+0  12943-2 0  9992
2 47388  53.0538  92.3682 0001807  48.5348 311.5796 15.06422851124872
STARLINK-2110           
1 47389U 21005AS  23116.10633500  .00011031  00000+0  75953-3 0  9997
2 47389  53.0537  68.8806 0001555 120.9468 239.1674 15.06339823125277
STARLINK-2111           
1 47390U 21005AT  23115.30556476  .00018749  00000+0  12724-2 0  9995
2 47390  53.0533  92.4815 0001132  90.3505 269.7614 15.06452756124870
STARLINK-2112           
1 47391U 21005AU  23116.11095913  .00023703  00000+0  16070-2 0  9994
2 47391  53.0554  58.8740 0001671  92.1758 267.9422 15.06349308126029
STARLINK-2113           
1 47392U 21005AV  23116.11189172  .00018190  00000+0  12393-2 0  9994
2 47392  53.0555  58.8641 0001165  83.6382 276.4739 15.06327667126027
STARLINK-2114           
1 47393U 21005AW  23116.07183403  .00026642  00000+0  18019-2 0  9993
2 47393  53.0549  34.4078 0001114  76.1953 283.9159 15.06375904125755
STARLINK-2115           
1 47394U 21005AX  23116.06998930  .00022587  00000+0  15332-2 0  9991
2 47394  53.0561  54.2189 0002199 144.9805 215.1329 15.06331776126090
STARLINK-2117           
1 47395U 21005AY  23116.09067962  .00020064  00000+0  13637-2 0  9991
2 47395  53.0543  48.9588 0001677 154.4400 205.6672 15.06354385125557
STARLINK-2118           
1 47396U 21005AZ  23116.13401628  .00016931  00000+0  11553-2 0  9991
2 47396  53.0554  58.7650 0001528 106.2831 253.8326 15.06318559126035
STARLINK-2119           
1 47397U 21005BA  23115.40141114 -.00010870  00000+0 -71185-3 0  9998
2 47397  53.0548  92.0569 0001264  71.9847 288.1280 15.06403994124891
STARLINK-2120           
1 47398U 21005BB  23115.24197418  .00027750  00000+0  18703-2 0  9998
2 47398  53.0539  62.7685 0001124  90.8521 269.2597 15.06484675125289
STARLINK-2121           
1 47399U 21005BC  23116.07412390  .00016540  00000+0  11273-2 0  9990
2 47399  53.0554  69.2786 0002045  80.6586 279.4634 15.06380111125265
STARLINK-2122           
1 47400U 21005BD  23115.23920034  .00028964  00000+0  19498-2 0  9999
2 47400  53.0555  52.7906 0000930  91.6969 268.4126 15.06505799125421
STARLINK-2123           
1 47401U 21005BE  23116.11926573  .00018658  00000+0  12706-2 0  9996
2 47401  53.0550  58.8317 0001272  87.0917 273.0217 15.06328129126033
STARLINK-2124           
1 47402U 21005BF  23116.07131703  .00016312  00000+0  11121-2 0  9990
2 47402  53.0551  59.0450 0001642 106.2953 253.8217 15.06377530126026
STARLINK-2127           
1 47403U 21005BG  23116.07869484  .00013769  00000+0  94226-3 0  9996
2 47403  53.0557  59.0157 0001347 103.7824 256.3315 15.06368377126024
STARLINK-2128           
1 47404U 21005BH  23115.21247783  .00026313  00000+0  17739-2 0  9996
2 47404  53.0557  62.9007 0001071 101.4564 258.6545 15.06503068125287
STARLINK-2130           
1 47405U 21005BJ  23115.26134091  .00016184  00000+0  11015-2 0  9995
2 47405  53.0523  92.6826 0001174  87.7655 272.3469 15.06446257124868
STARLINK-2133           
1 47406U 21005BK  23115.28987735  .00023714  00000+0  16010-2 0  9996
2 47406  53.0556  62.5527 0001167 106.2158 253.8959 15.06505995125297
STARLINK-2134           
1 47407U 21005BL  23115.23090850  .00026997  00000+0  18193-2 0  9995
2 47407  53.0537  62.8192 0001065 107.1598 252.9508 15.06503033125283
STARLINK-2135           
1 47408U 21005BM  23115.26775845  .00025483  00000+0  17186-2 0  9993
2 47408  53.0549  62.6530 0001203 109.5975 250.5144 15.06505399125298
SPACEBEE-62             
1 47429U 21006S   23115.58397436  .00023296  00000+0  82525-3 0  9998
2 47429  97.3911 176.2471 0009092 251.6147 108.4105 15.29078516124800
ASTROCAST-0101          
1 47430U 21006T   23114.71449464  .00023647  00000+0  11714-2 0  9994
2 47430  97.3981 171.0983 0007235 293.5083  66.5391 15.17741345123311
SPACEBEE-61             
1 47431U 21006U   23115.42070298  .00240965  00000+0  29835-2 0  9996
2 47431  97.3918 179.6499 0007194 233.9691 126.0899 15.59246014125928
SPACEBEE-49             
1 47432U 21006V   23115.45024173  .00179285  00000+0  23301-2 0  9999
2 47432  97.3927 179.5234 0006231 226.3792 133.6947 15.58166086125910
SPACEBEE-60             
1 47433U 21006W   23115.40615953  .00276249  00000+0  32056-2 0  9992
2 47433  97.3929 179.7587 0006808 225.9871 134.0825 15.60844322125929
UVSQ-SAT                
1 47438U 21006AB  23115.16210387  .00022458  00000+0  96090-3 0  9992
2 47438  97.3888 173.0800 0008569 264.1490  95.8769 15.22794108124576
YUSAT-1                 
1 47439U 21006AC  23116.11936797  .00019229  00000+0  77488-3 0  9991
2 47439  97.3896 174.5960 0008294 257.1085 102.9227 15.24853526124757
AII-CHARLIE             
1 47440U 21006AD  23115.41171095  .00020518  00000+0  83270-3 0  9996
2 47440  97.3918 173.8589 0008066 261.3901  98.6423 15.24602508124643
SPACEBEE-63             
1 47442U 21006AF  23116.12797620  .00020042  00000+0  82093-3 0  9999
2 47442  97.3949 173.7030 0003103 270.8979  89.1903 15.24321247124653
SPACEBEE-50             
1 47443U 21006AG  23115.76369767  .00191510  00000+0  26050-2 0  9995
2 47443  97.3921 179.8017 0006212 223.0441 137.0329 15.56898795125001
SOMP2B                  
1 47445U 21006AJ  23115.58621283  .00012386  00000+0  54248-3 0  9995
2 47445  97.3857 172.8279 0008450 268.3074  91.7194 15.22130730124617
KEPLER-12 (BOBA)        
1 47446U 21006AK  23115.57266458  .00008890  00000+0  40526-3 0  9993
2 47446  97.3933 173.5508 0008715 261.1474  98.8775 15.20847916124628
CUBEL                   
1 47448U 21006AM  23115.37048939  .00006557  00000+0  34262-3 0  9993
2 47448  97.4004 172.2581 0009912 278.8205  81.1905 15.16181722124467
LEMUR-2-NEVA            
1 47450U 21006AP  23115.11631000  .00038105  00000+0  12998-2 0  9990
2 47450  97.3998 175.7765 0006732 251.5092 108.5418 15.30224517124696
FLOCK 4S-22             
1 47452U 21006AR  23115.40571765  .00025525  00000+0  92566-3 0  9997
2 47452  97.3961 174.8224 0006663 255.1888 104.8614 15.28309402124662
LEMUR-2-SAOIRSEDH5GUO   
1 47453U 21006AS  23116.10998999  .00037845  00000+0  12181-2 0  9990
2 47453  97.4010 177.1615 0006022 247.0886 112.9721 15.32106558124858
KEPLER-13 (LUCKY)       
1 47454U 21006AT  23116.12014753  .00022565  00000+0  85756-3 0  9992
2 47454  97.3891 174.7160 0006965 252.1198 107.9281 15.26785358124761
FLOCK 4S-21             
1 47456U 21006AV  23115.73761965  .00027334  00000+0  98676-3 0  9998
2 47456  97.3958 175.2153 0006594 255.3116 104.7393 15.28444959124713
LEMUR-2-NALLYWACKER     
1 47457U 21006AW  23115.15430540  .00043879  00000+0  14053-2 0  9995
2 47457  97.3983 176.1721 0006534 250.6457 109.4079 15.32228775124728
IDEASSAT                
1 47458U 21006AX  23115.15427836  .00016006  00000+0  71010-3 0  9999
2 47458  97.3952 173.1602 0007686 268.6107  91.4248 15.21635963124536
SPACEBEE-55             
1 47459U 21006AY  23115.12804048  .00032235  00000+0  12217-2 0  9996
2 47459  97.3869 173.7071 0007501 269.0501  90.9878 15.26798126124628
KEPLER-15 (SUDORMRF)    
1 47461U 21006BA  23115.63157620  .00020074  00000+0  79712-3 0  9994
2 47461  97.3901 173.0450 0004215 283.8448  76.2321 15.25360339124603
FLOCK 4S-11             
1 47462U 21006BB  23115.15722834  .00014042  00000+0  68797-3 0  9996
2 47462  97.3931 170.8446 0005560 301.7221  58.3471 15.18246743124409
